OBJECT_NAME,OBJECT_ID,EPOCH,MEAN_MOTION,ECCENTRICITY,INCLINATION,RA_OF_ASC_NODE,ARG_OF_PERICENTER,MEAN_ANOMALY,EPHEMERIS_TYPE,CLASSIFICATION_TYPE,NORAD_CAT_ID,ELEMENT_SET_NO,REV_AT_EPOCH,BSTAR,MEAN_MOTION_DOT,MEAN_MOTION_DDOT
GLOBALSTAR M069,2007-020C,2026-06-18T11:41:44.562048,12.23471381,.0002314,52.0023,248.4472,150.6920,222.3322,0,U,31573,999,87896,.29785E-3,-.6E-6,0
GLOBALSTAR M072,2007-020D,2026-06-18T19:21:14.962752,11.91658336,.000143,51.9933,95.9343,336.4297,57.7514,0,U,31574,999,87517,-.19753E-3,-.98E-6,0
GLOBALSTAR M066,2007-048C,2026-06-18T01:40:46.200288,12.30387558,.000551,51.9605,55.3781,45.9123,100.0309,0,U,32265,999,86033,-.37741075E-3,-.139E-5,0
GLOBALSTAR M079,2010-054A,2026-06-18T14:03:12.226752,12.62266106,.0000751,52.0035,104.4123,27.5603,142.6884,0,U,37188,999,72272,.38014E-4,-.97E-6,0
GLOBALSTAR M074,2010-054B,2026-06-18T19:35:09.001824,12.62268363,.0000584,52.0011,102.9751,53.8715,324.6459,0,U,37189,999,72336,.12189E-4,-.102E-5,0
GLOBALSTAR M076,2010-054C,2026-06-18T13:25:17.332896,12.62261834,.0000761,52.0023,103.9603,45.0201,125.8107,0,U,37190,999,72304,.10261E-4,-.102E-5,0
GLOBALSTAR M077,2010-054D,2026-06-18T18:36:11.544768,11.67547805,.00027,51.9919,175.2653,175.3326,355.4146,0,U,37191,999,72132,-.28265E-3,-.93E-6,0
GLOBALSTAR M075,2010-054E,2026-06-18T15:37:56.100864,12.62267354,.0000208,51.9923,145.7340,23.5628,145.9952,0,U,37192,999,72212,-.90478E-4,-.12E-5,0
GLOBALSTAR M073,2010-054F,2026-06-18T09:56:46.499712,12.62266509,.0000956,52.0068,60.5565,50.6685,120.2585,0,U,37193,999,72408,.1679E-3,-.74E-6,0
GLOBALSTAR M083,2011-033A,2026-06-18T20:49:36.751008,12.62263219,.0000944,51.9875,7.4031,69.5123,304.0049,0,U,37739,999,69316,.97513E-4,-.86E-6,0
GLOBALSTAR M088,2011-033B,2026-06-18T19:09:38.368800,12.62268818,.0000673,52.0216,274.0478,129.6168,46.6303,0,U,37740,999,68869,.15471E-3,-.76E-6,0
GLOBALSTAR M091,2011-033C,2026-06-18T11:00:34.036128,12.62264027,.0000274,51.9989,238.0451,155.7412,217.3661,0,U,37741,999,68944,.11911E-3,-.82E-6,0
GLOBALSTAR M085,2011-033D,2026-06-18T19:07:47.023392,12.62264160,.000015,52.0097,188.3073,308.9939,222.4340,0,U,37742,999,68999,-.60747E-4,-.115E-5,0
GLOBALSTAR M081,2011-033E,2026-06-18T07:31:35.816736,12.62265121,.0000106,51.9932,192.2140,88.4525,284.6275,0,U,37743,999,69008,.99747E-5,-.102E-5,0
GLOBALSTAR M089,2011-033F,2026-06-18T16:54:36.518112,12.62267242,.0000376,51.9908,145.1809,81.7259,89.7801,0,U,37744,999,69097,-.53179E-4,-.113E-5,0
GLOBALSTAR M084,2011-080A,2026-06-18T20:11:36.966048,12.62267575,.0001096,52.0027,12.2462,88.2196,285.2134,0,U,38040,999,66897,.35733E-4,-.97E-6,0
GLOBALSTAR M080,2011-080B,2026-06-18T21:24:24.689088,12.62269454,.0000395,52.0077,13.8110,70.9316,302.3842,0,U,38041,999,66910,.72384E-4,-.91E-6,0
GLOBALSTAR M082,2011-080C,2026-06-18T18:27:30.334176,12.62263739,.0000522,52.0100,329.6865,100.7285,4.0638,0,U,38042,999,66979,.1224E-3,-.82E-6,0
GLOBALSTAR M092,2011-080D,2026-06-18T10:34:43.142304,12.62267027,.0000724,52.0095,61.0822,65.0089,106.1365,0,U,38043,999,66820,.91045E-4,-.87E-6,0
GLOBALSTAR M090,2011-080E,2026-06-18T16:43:08.596992,12.62269052,.0000784,52.0141,323.8630,93.7142,280.6330,0,U,38044,999,66990,.22691E-4,-.1E-5,0
GLOBALSTAR M086,2011-080F,2026-06-18T17:14:00.886848,12.62286778,.000169,51.9916,323.7253,70.3350,302.5717,0,U,38045,999,66985,.92109E-4,-.87E-6,0
GLOBALSTAR M097,2013-005A,2026-06-18T12:13:00.464160,12.62247265,.0000265,52.0038,239.3137,127.5074,232.5817,0,U,39072,999,61707,.8359E-4,-.89E-6,0
GLOBALSTAR M093,2013-005B,2026-06-18T11:34:24.602016,12.62266006,.0000183,52.0094,232.7418,85.7273,274.3615,0,U,39073,999,61702,.93113E-4,-.87E-6,0
GLOBALSTAR M094,2013-005C,2026-06-18T15:22:18.236640,12.62268541,.000045,51.9931,146.3735,7.1136,352.9737,0,U,39074,999,61865,-.11745E-3,-.125E-5,0
GLOBALSTAR M096,2013-005D,2026-06-18T19:29:46.118976,12.62265682,.0000069,52.0046,194.6544,320.5178,39.5684,0,U,39075,999,61759,-.36817E-4,-.11E-5,0
GLOBALSTAR M078,2013-005E,2026-06-18T15:02:52.469088,12.62257758,.0000515,51.9885,279.2262,234.3680,125.7138,0,U,39076,999,61619,-.19546E-3,-.139E-5,0
GLOBALSTAR M095,2013-005F,2026-06-18T13:47:21.583104,12.62263467,.0000207,52.0090,276.9921,131.3200,228.7685,0,U,39077,999,61604,.12244E-3,-.82E-6,0
GLOBALSTAR M087,2022-064A,2026-06-18T10:18:21.919104,12.62269089,.0000779,52.0011,58.6706,41.3620,318.7305,0,U,52888,999,19129,.85278E-4,-.88E-6,0
